H1 CPF  1  HTS 2022  9 14 12  7571 larets           NONE
H2  0304206 5557    27944 2022 09 14  0  0  0 2022 09 19  0  0  0   180 1 1  0 0 0
H5  0.0560 
H9 
10 0 59837  59400.00000  0   -1040616.366    -505028.498   -6973053.417
10 0 59837  59580.00000  0   -2106760.384     308158.610   -6738208.995
10 0 59837  59760.00000  0   -3075189.647    1136908.059   -6258016.457
10 0 59837  59940.00000  0   -3910750.762    1948171.153   -5549607.336
10 0 59837  60120.00000  0   -4583830.653    2708569.015   -4638446.965
10 0 59837  60300.00000  0   -5071452.868    3385761.755   -3557495.361
10 0 59837  60480.00000  0   -5358124.770    3949833.152   -2346075.050
10 0 59837  60660.00000  0   -5436395.156    4374631.734   -1048471.730
10 0 59837  60840.00000  0   -5307084.989    4638997.701     287693.977
10 0 59837  61020.00000  0   -4979167.459    4727807.390    1613262.132
10 0 59837  61200.00000  0   -4469291.004    4632768.132    2879415.460
10 0 59837  61380.00000  0   -3800967.977    4352918.391    4039549.698
10 0 59837  61560.00000  0   -3003478.504    3894808.725    5051042.950
10 0 59837  61740.00000  0   -2110554.148    3272356.345    5876847.922
10 0 59837  61920.00000  0   -1158909.049    2506385.516    6486842.737
10 0 59837  62100.00000  0    -186695.584    1623881.635    6858892.427
10 0 59837  62280.00000  0     768039.620     657000.727    6979601.159
10 0 59837  62460.00000  0    1668846.221    -358125.382    6844749.810
10 0 59837  62640.00000  0    2482255.853   -1382746.582    6459415.696
10 0 59837  62820.00000  0    3179020.379   -2376973.808    5837777.222
10 0 59837  63000.00000  0    3735166.669   -3301331.627    5002606.574
10 0 59837  63180.00000  0    4132830.471   -4118330.581    3984459.524
10 0 59837  63360.00000  0    4360840.554   -4794000.997    2820580.447
10 0 59837  63540.00000  0    4415027.635   -5299322.910    1553549.699
10 0 59837  63720.00000  0    4298241.729   -5611483.018     229717.018
10 0 59837  63900.00000  0    4020074.483   -5714894.436   -1102517.091
10 0 59837  64080.00000  0    3596303.372   -5601930.723   -2394502.132
10 0 59837  64260.00000  0    3048081.911   -5273332.336   -3599143.595
10 0 59837  64440.00000  0    2400922.273   -4738268.284   -4672632.843
10 0 59837  64620.00000  0    1683522.287   -4014054.671   -5576027.543
10 0 59837  64800.00000  0     926504.413   -3125552.459   -6276622.454
10 0 59837  64980.00000  0     161124.974   -2104284.009   -6749076.250
10 0 59837  65160.00000  0    -581995.739    -987303.410   -6976271.373
10 0 59837  65340.00000  0   -1274071.382     184137.656   -6949890.881
10 0 59837  65520.00000  0   -1889241.174    1366082.847   -6670707.452
10 0 59837  65700.00000  0   -2405523.443    2513481.895   -6148582.088
10 0 59837  65880.00000  0   -2805602.938    3581878.445   -5402172.226
10 0 59837  66060.00000  0   -3077430.288    4529129.933   -4458342.552
10 0 59837  66240.00000  0   -3214609.322    5317099.205   -3351271.721
10 0 59837  66420.00000  0   -3216546.794    5913240.796   -2121267.056
10 0 59837  66600.00000  0   -3088356.004    6292012.882    -813323.537
10 0 59837  66780.00000  0   -2840509.567    6436038.099     524537.705
10 0 59837  66960.00000  0   -2488257.051    6336942.764    1843081.954
10 0 59837  67140.00000  0   -2050823.794    5995814.755    3093753.076
10 0 59837  67320.00000  0   -1550435.804    5423242.385    4230532.731
10 0 59837  67500.00000  0   -1011234.905    4638949.753    5211680.868
10 0 59837  67680.00000  0    -458136.834    3671050.010    6001288.089
10 0 59837  67860.00000  0      84306.028    2554961.996    6570575.292
10 0 59837  68040.00000  0     592980.421    1332048.106    6898904.307
10 0 59837  68220.00000  0    1047184.254      48036.862    6974477.642
10 0 59837  68400.00000  0    1429457.769   -1248706.762    6794718.931
10 0 59837  68580.00000  0    1726246.644   -2509006.674    6366338.438
10 0 59837  68760.00000  0    1928377.703   -3684741.215    5705081.228
10 0 59837  68940.00000  0    2031332.225   -4730686.294    4835161.910
10 0 59837  69120.00000  0    2035310.936   -5606267.675    3788401.496
10 0 59837  69300.00000  0    1945092.229   -6277165.750    2603087.007
10 0 59837  69480.00000  0    1769682.226   -6716697.392    1322577.211
10 0 59837  69660.00000  0    1521777.787   -6906909.526      -6289.882
10 0 59837  69840.00000  0    1217064.579   -6839336.504   -1334934.056
10 0 59837  70020.00000  0     873381.281   -6515367.888   -2614848.780
10 0 59837  70200.00000  0     509798.576   -5946202.188   -3799399.223
10 0 59837  70380.00000  0     145667.483   -5152408.218   -4845527.523
10 0 59837  70560.00000  0    -200321.170   -4163120.408   -5715298.725
10 0 59837  70740.00000  0    -511019.581   -3014916.473   -6377232.433
10 0 59837  70920.00000  0    -771608.164   -1750432.383   -6807384.765
10 0 59837  71100.00000  0    -970253.223    -416775.031   -6990157.306
10 0 59837  71280.00000  0   -1098614.269     936210.200   -6918823.977
10 0 59837  71460.00000  0   -1152184.312    2257763.099   -6595768.777
10 0 59837  71640.00000  0   -1130453.502    3498073.136   -6032434.974
10 0 59837  71820.00000  0   -1036890.045    4610139.711   -5248982.315
10 0 59837  72000.00000  0    -878736.266    5551570.537   -4273642.590
10 0 59837  72180.00000  0    -666625.329    6286252.134   -3141773.942
10 0 59837  72360.00000  0    -414028.821    6785815.700   -1894627.492
10 0 59837  72540.00000  0    -136556.377    7030826.611    -577859.683
10 0 59837  72720.00000  0     148861.370    7011627.544     760162.312
10 0 59837  72900.00000  0     424866.769    6728778.823    2070194.154
10 0 59837  73080.00000  0     674592.973    6193057.056    3304001.011
10 0 59837  73260.00000  0     882553.608    5425014.970    4416197.288
10 0 59837  73440.00000  0    1035463.589    4454136.130    5365964.931
10 0 59837  73620.00000  0    1122940.966    3317614.270    6118569.502
10 0 59837  73800.00000  0    1138061.429    2058848.895    6646605.245
10 0 59837  73980.00000  0    1077738.149     725727.950    6930953.492
10 0 59837  74160.00000  0     942914.859    -631231.043    6961425.289
10 0 59837  74340.00000  0     738566.738   -1960805.255    6737087.864
10 0 59837  74520.00000  0     473508.526   -3213001.994    6266274.574
10 0 59837  74700.00000  0     160017.115   -4340940.293    5566272.478
10 0 59837  74880.00000  0    -186713.301   -5302607.113    4662699.458
10 0 59837  75060.00000  0    -549262.961   -6062441.791    3588599.345
10 0 59837  75240.00000  0    -908805.821   -6592693.547    2383256.088
10 0 59837  75420.00000  0   -1246016.784   -6874477.533    1090761.662
10 0 59837  75600.00000  0   -1542024.372   -6898485.029    -241608.963
10 0 59837  75780.00000  0   -1779361.072   -6665302.287   -1565159.542
10 0 59837  75960.00000  0   -1942856.805   -6185320.532   -2831585.266
10 0 59837  76140.00000  0   -2020435.377   -5478250.203   -3994759.154
10 0 59837  76320.00000  0   -2003773.463   -4572263.370   -5012417.133
10 0 59837  76500.00000  0   -1888789.345   -3502817.296   -5847668.680
10 0 59837  76680.00000  0   -1675943.625   -2311228.012   -6470286.984
10 0 59837  76860.00000  0   -1370340.628   -1043055.638   -6857746.293
10 0 59837  77040.00000  0    -981629.531     253630.941   -6995980.328
10 0 59837  77220.00000  0    -523710.536    1530045.501   -6879856.465
10 0 59837  77400.00000  0     -14252.439    2738479.402   -6513364.460
10 0 59837  77580.00000  0     525964.649    3834055.527   -5909517.626
10 0 59837  77760.00000  0    1073870.090    4776394.527   -5089955.951
10 0 59837  77940.00000  0    1605058.848    5531134.185   -4084247.173
10 0 59837  78120.00000  0    2094852.022    6071247.902   -2928889.501
10 0 59837  78300.00000  0    2519418.076    6378096.870   -1666031.228
10 0 59837  78480.00000  0    2856903.369    6442161.299    -341940.385
10 0 59837  78660.00000  0    3088511.348    6263396.236     994724.625
10 0 59837  78840.00000  0    3199469.027    5851182.716    2294762.152
10 0 59837  79020.00000  0    3179827.799    5223877.242    3510307.271
10 0 59837  79200.00000  0    3025055.434    4407978.950    4596658.742
10 0 59837  79380.00000  0    2736384.791    3436959.765    5513968.635
10 0 59837  79560.00000  0    2320896.751    2349821.618    6228711.908
10 0 59837  79740.00000  0    1791353.432    1189471.931    6714884.610
10 0 59837  79920.00000  0    1165786.301        987.550    6954907.552
10 0 59837  80100.00000  0     466858.912   -1170153.886    6940211.983
10 0 59837  80280.00000  0    -278968.976   -2279817.205    6671512.265
10 0 59837  80460.00000  0   -1042450.963   -3286872.173    6158754.230
10 0 59837  80640.00000  0   -1792696.035   -4154714.232    5420743.998
10 0 59837  80820.00000  0   -2498406.935   -4852598.652    4484482.816
10 0 59837  81000.00000  0   -3129184.971   -5356754.416    3384212.328
10 0 59837  81180.00000  0   -3656838.784   -5651223.644    2160177.195
10 0 59837  81360.00000  0   -4056631.829   -5728384.066     857152.849
10 0 59837  81540.00000  0   -4308415.376   -5589134.278    -477207.212
10 0 59837  81720.00000  0   -4397589.853   -5242729.199   -1794143.052
10 0 59837  81900.00000  0   -4315841.946   -4706269.566   -3045605.194
10 0 59837  82080.00000  0   -4061617.588   -4003871.284   -4186030.767
10 0 59837  82260.00000  0   -3640311.570   -3165568.066   -5173999.620
10 0 59837  82440.00000  0   -3064172.984   -2226009.058   -5973710.160
10 0 59837  82620.00000  0   -2351936.773   -1223015.362   -6556227.455
10 0 59837  82800.00000  0   -1528200.248    -196059.985   -6900472.659
10 0 59837  82980.00000  0    -622571.560     815266.862   -6993929.293
10 0 59837  83160.00000  0     331374.612    1772751.416   -6833066.734
10 0 59837  83340.00000  0    1297308.794    2640970.644   -6423481.334
10 0 59837  83520.00000  0    2237500.449    3388591.412   -5779747.559
10 0 59837  83700.00000  0    3114272.967    3989512.493   -4924964.452
99
